{
    "links": {
        "self": "http://www.neowsapp.com/rest/v1/neo/54098027?api_key=iIulBulltgU6a56xZRHN4H3l9WmuAYTsLGpBGhQ2"
    },
    "id": "54098027",
    "neo_reference_id": "54098027",
    "name": "(2020 XS1)",
    "designation": "2020 XS1",
    "nasa_jpl_url": "http://ssd.jpl.nasa.gov/sbdb.cgi?sstr=54098027",
    "absolute_magnitude_h": 23.817,
    "estimated_diameter": {
        "kilometers": {
            "estimated_diameter_min": 0.0458305402,
            "estimated_diameter_max": 0.1024802034
        },
        "meters": {
            "estimated_diameter_min": 45.8305402365,
            "estimated_diameter_max": 102.4802034144
        },
        "miles": {
            "estimated_diameter_min": 0.0284777686,
            "estimated_diameter_max": 0.0636782265
        },
        "feet": {
            "estimated_diameter_min": 150.3626696296,
            "estimated_diameter_max": 336.2211505701
        }
    },
    "is_potentially_hazardous_asteroid": false,
    "close_approach_data": [
        {
            "close_approach_date": "2020-12-07",
            "close_approach_date_full": "2020-Dec-07 02:06",
            "epoch_date_close_approach": 1607306760000,
            "relative_velocity": {
                "kilometers_per_second": "14.4150076098",
                "kilometers_per_hour": "51894.0273952134",
                "miles_per_hour": "32244.9305223202"
            },
            "miss_distance": {
                "astronomical": "0.2696847686",
                "lunar": "104.9073749854",
                "kilometers": "40344266.954002882",
                "miles": "25068765.0311364916"
            },
            "orbiting_body": "Earth"
        }
    ],
    "orbital_data": {
        "orbit_id": "1",
        "orbit_determination_date": "2020-12-07 23:42:05",
        "first_observation_date": "2020-12-06",
        "last_observation_date": "2020-12-08",
        "data_arc_in_days": 2,
        "observations_used": 18,
        "orbit_uncertainty": "9",
        "minimum_orbit_intersection": ".266614",
        "jupiter_tisserand_invariant": "4.630",
        "epoch_osculation": "2459190.5",
        "eccentricity": ".1176777136543004",
        "semi_major_axis": "1.397143088629095",
        "inclination": "28.34369409562901",
        "ascending_node_longitude": "73.43840122877982",
        "orbital_period": "603.1978112096193",
        "perihelion_distance": "1.232730484311316",
        "perihelion_argument": "32.88472272668243",
        "aphelion_distance": "1.561555692946875",
        "perihelion_time": "2459233.817055181952",
        "mean_anomaly": "334.1475523025671",
        "mean_motion": ".5968191417639199",
        "equinox": "J2000",
        "orbit_class": {
            "orbit_class_type": "AMO",
            "orbit_class_description": "Near-Earth asteroid orbits similar to that of 1221 Amor",
            "orbit_class_range": "1.017 AU < q (perihelion) < 1.3 AU"
        }
    },
    "is_sentry_object": false
}